0 OPS 9317 (IDSCS 7)
1 02221U 66053H   13278.50845579 -.00000126  00000-0  10000-3 0  8848
2 02221 000.7720 346.7301 0084116 136.3561 337.6776 01.06870444184426
0 OPS 9317 (IDSCS 7)
1 02221U 66053H   13280.12010964 -.00000097  00000-0  10000-3 0  8859
2 02221 000.7745 347.3485 0084075 135.7864 237.6981 01.06869856184440
0 OPS 9317 (IDSCS 7)
1 02221U 66053H   13282.92720202 -.00000073  00000-0  10000-3 0  8867
2 02221 000.7741 347.4139 0084066 135.7802 237.6356 01.06869339184470
0 OPS 9317 (IDSCS 7)
1 02221U 66053H   13285.73426982 -.00000153  00000-0  10000-3 0  8877
2 02221 000.7726 347.4431 0084094 135.8624 237.5174 01.06870602184508
0 OPS 9317 (IDSCS 7)
1 02221U 66053H   13286.66995731 -.00000143  00000-0  10000-3 0  8883
2 02221 000.7718 347.4735 0084071 135.9029 237.4435 01.06870337184516
0 OPS 9317 (IDSCS 7)
1 02221U 66053H   13289.47705673 -.00000066  00000-0  10000-3 0  8894
2 02221 000.7745 347.9006 0084083 135.5594 237.3582 01.06868942184542
0 OPS 9317 (IDSCS 7)
1 02221U 66053H   13290.37739321  .00000000  00000-0  10000-3 0  8901
2 02221 000.7752 347.8786 0083942 135.6570 223.6748 01.06866088184543
0 OPS 9317 (IDSCS 7)
1 02221U 66053H   13292.28416112 -.00000126  00000-0  10000-3 0  8903
2 02221 000.7723 348.0311 0083957 135.5840 237.2031 01.06870143184579
